{"type": "FeatureCollection", "features": [{"type": "Feature", "properties": {"name": "山莨菪", "sci_name": "Anisodus tanguticus", "protection": "国家二级保护", "elevation": 3127, "station_type": "endangered_plant"}, "geometry": {"type": "Point", "coordinates": [99.071085, 39.144007]}}, {"type": "Feature", "properties": {"name": "山莨菪", "sci_name": "Anisodus tanguticus", "protection": "国家二级保护", "elevation": 3118, "station_type": "endangered_plant"}, "geometry": {"type": "Point", "coordinates": [99.323972, 37.027372]}}, {"type": "Feature", "properties": {"name": "山莨菪", "sci_name": "Anisodus tanguticus", "protection": "国家二级保护", "elevation": 3080, "station_type": "endangered_plant"}, "geometry": {"type": "Point", "coordinates": [100.51437, 38.835462]}}, {"type": "Feature", "properties": {"name": "山莨菪", "sci_name": "Anisodus tanguticus", "protection": "国家二级保护", "elevation": 3138, "station_type": "endangered_plant"}, "geometry": {"type": "Point", "coordinates": [102.459251, 38.151107]}}, {"type": "Feature", "properties": {"name": "山莨菪", "sci_name": "Anisodus tanguticus", "protection": "国家二级保护", "elevation": 3026, "station_type": "endangered_plant"}, "geometry": {"type": "Point", "coordinates": [101.46191, 37.310003]}}, {"type": "Feature", "properties": {"name": "山莨菪", "sci_name": "Anisodus tanguticus", "protection": "国家二级保护", "elevation": 3088, "station_type": "endangered_plant"}, "geometry": {"type": "Point", "coordinates": [101.040807, 38.554297]}}, {"type": "Feature", "properties": {"name": "山莨菪", "sci_name": "Anisodus tanguticus", "protection": "国家二级保护", "elevation": 3151, "station_type": "endangered_plant"}, "geometry": {"type": "Point", "coordinates": [102.475765, 37.810716]}}, {"type": "Feature", "properties": {"name": "羽叶点地梅", "sci_name": "Androsace pinnatifida", "protection": "国家二级保护", "elevation": 3563, "station_type": "endangered_plant"}, "geometry": {"type": "Point", "coordinates": [100.316819, 38.689115]}}, {"type": "Feature", "properties": {"name": "羽叶点地梅", "sci_name": "Androsace pinnatifida", "protection": "国家二级保护", "elevation": 3512, "station_type": "endangered_plant"}, "geometry": {"type": "Point", "coordinates": [100.562503, 37.633832]}}, {"type": "Feature", "properties": {"name": "羽叶点地梅", "sci_name": "Androsace pinnatifida", "protection": "国家二级保护", "elevation": 3578, "station_type": "endangered_plant"}, "geometry": {"type": "Point", "coordinates": [102.422695, 39.3326]}}, {"type": "Feature", "properties": {"name": "羽叶点地梅", "sci_name": "Androsace pinnatifida", "protection": "国家二级保护", "elevation": 3566, "station_type": "endangered_plant"}, "geometry": {"type": "Point", "coordinates": [101.862428, 38.732317]}}, {"type": "Feature", "properties": {"name": "羽叶点地梅", "sci_name": "Androsace pinnatifida", "protection": "国家二级保护", "elevation": 3445, "station_type": "endangered_plant"}, "geometry": {"type": "Point", "coordinates": [102.366835, 37.497157]}}, {"type": "Feature", "properties": {"name": "桃儿七", "sci_name": "Sinopodophyllum hexandrum", "protection": "国家二级保护", "elevation": 3222, "station_type": "endangered_plant"}, "geometry": {"type": "Point", "coordinates": [99.735047, 38.636921]}}, {"type": "Feature", "properties": {"name": "桃儿七", "sci_name": "Sinopodophyllum hexandrum", "protection": "国家二级保护", "elevation": 3131, "station_type": "endangered_plant"}, "geometry": {"type": "Point", "coordinates": [99.602539, 38.631677]}}, {"type": "Feature", "properties": {"name": "桃儿七", "sci_name": "Sinopodophyllum hexandrum", "protection": "国家二级保护", "elevation": 3105, "station_type": "endangered_plant"}, "geometry": {"type": "Point", "coordinates": [101.940918, 38.255135]}}, {"type": "Feature", "properties": {"name": "桃儿七", "sci_name": "Sinopodophyllum hexandrum", "protection": "国家二级保护", "elevation": 3116, "station_type": "endangered_plant"}, "geometry": {"type": "Point", "coordinates": [99.2879, 39.097948]}}, {"type": "Feature", "properties": {"name": "桃儿七", "sci_name": "Sinopodophyllum hexandrum", "protection": "国家二级保护", "elevation": 3192, "station_type": "endangered_plant"}, "geometry": {"type": "Point", "coordinates": [99.748529, 38.904504]}}, {"type": "Feature", "properties": {"name": "穴丝荠", "sci_name": "Coelonema draboides", "protection": "特有植物", "elevation": 3875, "station_type": "endangered_plant"}, "geometry": {"type": "Point", "coordinates": [99.927993, 38.458622]}}, {"type": "Feature", "properties": {"name": "穴丝荠", "sci_name": "Coelonema draboides", "protection": "特有植物", "elevation": 3748, "station_type": "endangered_plant"}, "geometry": {"type": "Point", "coordinates": [99.787009, 38.063976]}}, {"type": "Feature", "properties": {"name": "穴丝荠", "sci_name": "Coelonema draboides", "protection": "特有植物", "elevation": 3829, "station_type": "endangered_plant"}, "geometry": {"type": "Point", "coordinates": [100.605892, 37.003798]}}, {"type": "Feature", "properties": {"name": "穴丝荠", "sci_name": "Coelonema draboides", "protection": "特有植物", "elevation": 3887, "station_type": "endangered_plant"}, "geometry": {"type": "Point", "coordinates": [99.591722, 37.053862]}}, {"type": "Feature", "properties": {"name": "穴丝荠", "sci_name": "Coelonema draboides", "protection": "特有植物", "elevation": 3866, "station_type": "endangered_plant"}, "geometry": {"type": "Point", "coordinates": [100.801291, 39.324818]}}, {"type": "Feature", "properties": {"name": "穴丝荠", "sci_name": "Coelonema draboides", "protection": "特有植物", "elevation": 3766, "station_type": "endangered_plant"}, "geometry": {"type": "Point", "coordinates": [100.273507, 37.062648]}}, {"type": "Feature", "properties": {"name": "穴丝荠", "sci_name": "Coelonema draboides", "protection": "特有植物", "elevation": 3802, "station_type": "endangered_plant"}, "geometry": {"type": "Point", "coordinates": [101.023627, 38.911676]}}, {"type": "Feature", "properties": {"name": "祁连獐牙菜", "sci_name": "Swertia przewalskii", "protection": "特有植物", "elevation": 3343, "station_type": "endangered_plant"}, "geometry": {"type": "Point", "coordinates": [99.038769, 37.787131]}}, {"type": "Feature", "properties": {"name": "祁连獐牙菜", "sci_name": "Swertia przewalskii", "protection": "特有植物", "elevation": 3461, "station_type": "endangered_plant"}, "geometry": {"type": "Point", "coordinates": [100.380155, 38.433779]}}, {"type": "Feature", "properties": {"name": "祁连獐牙菜", "sci_name": "Swertia przewalskii", "protection": "特有植物", "elevation": 3323, "station_type": "endangered_plant"}, "geometry": {"type": "Point", "coordinates": [99.174152, 37.568316]}}, {"type": "Feature", "properties": {"name": "祁连獐牙菜", "sci_name": "Swertia przewalskii", "protection": "特有植物", "elevation": 3358, "station_type": "endangered_plant"}, "geometry": {"type": "Point", "coordinates": [99.149711, 37.289457]}}, {"type": "Feature", "properties": {"name": "马尿泡", "sci_name": "Przewalskia tangutica", "protection": "特有植物", "elevation": 3576, "station_type": "endangered_plant"}, "geometry": {"type": "Point", "coordinates": [99.98148, 37.642328]}}, {"type": "Feature", "properties": {"name": "马尿泡", "sci_name": "Przewalskia tangutica", "protection": "特有植物", "elevation": 3639, "station_type": "endangered_plant"}, "geometry": {"type": "Point", "coordinates": [102.477676, 38.348804]}}, {"type": "Feature", "properties": {"name": "马尿泡", "sci_name": "Przewalskia tangutica", "protection": "特有植物", "elevation": 3656, "station_type": "endangered_plant"}, "geometry": {"type": "Point", "coordinates": [102.042116, 37.410913]}}, {"type": "Feature", "properties": {"name": "马尿泡", "sci_name": "Przewalskia tangutica", "protection": "特有植物", "elevation": 3593, "station_type": "endangered_plant"}, "geometry": {"type": "Point", "coordinates": [100.773097, 37.498732]}}, {"type": "Feature", "properties": {"name": "马尿泡", "sci_name": "Przewalskia tangutica", "protection": "特有植物", "elevation": 3583, "station_type": "endangered_plant"}, "geometry": {"type": "Point", "coordinates": [101.784231, 39.191349]}}, {"type": "Feature", "properties": {"name": "马尿泡", "sci_name": "Przewalskia tangutica", "protection": "特有植物", "elevation": 3517, "station_type": "endangered_plant"}, "geometry": {"type": "Point", "coordinates": [100.523817, 38.505673]}}, {"type": "Feature", "properties": {"name": "马尿泡", "sci_name": "Przewalskia tangutica", "protection": "特有植物", "elevation": 3630, "station_type": "endangered_plant"}, "geometry": {"type": "Point", "coordinates": [101.551708, 38.008659]}}, {"type": "Feature", "properties": {"name": "马尿泡", "sci_name": "Przewalskia tangutica", "protection": "特有植物", "elevation": 3637, "station_type": "endangered_plant"}, "geometry": {"type": "Point", "coordinates": [100.5936, 39.400791]}}, {"type": "Feature", "properties": {"name": "唐古特大黄", "sci_name": "Rheum tanguticum", "protection": "珍贵药材", "elevation": 3226, "station_type": "endangered_plant"}, "geometry": {"type": "Point", "coordinates": [101.590203, 38.093143]}}, {"type": "Feature", "properties": {"name": "唐古特大黄", "sci_name": "Rheum tanguticum", "protection": "珍贵药材", "elevation": 3383, "station_type": "endangered_plant"}, "geometry": {"type": "Point", "coordinates": [99.109072, 37.290751]}}, {"type": "Feature", "properties": {"name": "唐古特大黄", "sci_name": "Rheum tanguticum", "protection": "珍贵药材", "elevation": 3287, "station_type": "endangered_plant"}, "geometry": {"type": "Point", "coordinates": [100.293813, 37.606801]}}, {"type": "Feature", "properties": {"name": "唐古特大黄", "sci_name": "Rheum tanguticum", "protection": "珍贵药材", "elevation": 3277, "station_type": "endangered_plant"}, "geometry": {"type": "Point", "coordinates": [100.490319, 39.062088]}}]}