{"type": "FeatureCollection", "features": [{"type": "Feature", "properties": {"name": "九条岭煤业有限责任公司水磨沟矿井", "type": "工矿用地", "zone": "实验区", "station_type": "human_activity"}, "geometry": {"type": "Point", "coordinates": [101.947778, 37.869167]}}, {"type": "Feature", "properties": {"name": "七一冰川旅游接待站", "type": "旅游设施", "zone": "实验区", "station_type": "human_activity"}, "geometry": {"type": "Point", "coordinates": [97.716667, 39.277222]}}, {"type": "Feature", "properties": {"name": "肃南县九个泉选矿厂", "type": "工矿用地", "zone": "实验区", "station_type": "human_activity"}, "geometry": {"type": "Point", "coordinates": [99.335278, 38.811111]}}, {"type": "Feature", "properties": {"name": "骠骑将军大营", "type": "其他", "zone": "实验区", "station_type": "human_activity"}, "geometry": {"type": "Point", "coordinates": [101.351389, 39.081944]}}, {"type": "Feature", "properties": {"name": "大湾铜矿", "type": "工矿用地", "zone": "实验区", "station_type": "human_activity"}, "geometry": {"type": "Point", "coordinates": [99.059448, 39.11589]}}, {"type": "Feature", "properties": {"name": "人类活动监测点-0001", "type": "工矿用地", "zone": "实验区", "station_type": "human_activity"}, "geometry": {"type": "Point", "coordinates": [103.182239, 39.294527]}}, {"type": "Feature", "properties": {"name": "人类活动监测点-0002", "type": "农村居民地", "zone": "实验区", "station_type": "human_activity"}, "geometry": {"type": "Point", "coordinates": [101.428139, 37.091337]}}, {"type": "Feature", "properties": {"name": "人类活动监测点-0003", "type": "农村居民地", "zone": "实验区", "station_type": "human_activity"}, "geometry": {"type": "Point", "coordinates": [101.564758, 38.687257]}}, {"type": "Feature", "properties": {"name": "人类活动监测点-0004", "type": "水库坑塘", "zone": "实验区", "station_type": "human_activity"}, "geometry": {"type": "Point", "coordinates": [97.754734, 39.062685]}}, {"type": "Feature", "properties": {"name": "人类活动监测点-0005", "type": "工矿用地", "zone": "实验区", "station_type": "human_activity"}, "geometry": {"type": "Point", "coordinates": [96.499201, 37.631579]}}, {"type": "Feature", "properties": {"name": "人类活动监测点-0006", "type": "工矿用地", "zone": "实验区", "station_type": "human_activity"}, "geometry": {"type": "Point", "coordinates": [102.770828, 37.263928]}}, {"type": "Feature", "properties": {"name": "人类活动监测点-0007", "type": "工矿用地", "zone": "实验区", "station_type": "human_activity"}, "geometry": {"type": "Point", "coordinates": [96.39686, 39.100705]}}, {"type": "Feature", "properties": {"name": "人类活动监测点-0008", "type": "其他建设用地", "zone": "外围保护区", "station_type": "human_activity"}, "geometry": {"type": "Point", "coordinates": [99.457768, 38.005174]}}, {"type": "Feature", "properties": {"name": "人类活动监测点-0009", "type": "其他建设用地", "zone": "实验区", "station_type": "human_activity"}, "geometry": {"type": "Point", "coordinates": [99.248317, 39.426225]}}, {"type": "Feature", "properties": {"name": "人类活动监测点-0010", "type": "工矿用地", "zone": "实验区", "station_type": "human_activity"}, "geometry": {"type": "Point", "coordinates": [96.919997, 37.817788]}}, {"type": "Feature", "properties": {"name": "人类活动监测点-0011", "type": "工矿用地", "zone": "实验区", "station_type": "human_activity"}, "geometry": {"type": "Point", "coordinates": [101.420073, 39.571197]}}, {"type": "Feature", "properties": {"name": "人类活动监测点-0012", "type": "农村居民地", "zone": "外围保护区", "station_type": "human_activity"}, "geometry": {"type": "Point", "coordinates": [102.489783, 37.628137]}}, {"type": "Feature", "properties": {"name": "人类活动监测点-0013", "type": "工矿用地", "zone": "实验区", "station_type": "human_activity"}, "geometry": {"type": "Point", "coordinates": [101.018006, 37.833472]}}, {"type": "Feature", "properties": {"name": "人类活动监测点-0014", "type": "农村居民地", "zone": "实验区", "station_type": "human_activity"}, "geometry": {"type": "Point", "coordinates": [101.855197, 38.752494]}}, {"type": "Feature", "properties": {"name": "人类活动监测点-0015", "type": "其他建设用地", "zone": "实验区", "station_type": "human_activity"}, "geometry": {"type": "Point", "coordinates": [97.49528, 39.703796]}}, {"type": "Feature", "properties": {"name": "人类活动监测点-0016", "type": "工矿用地", "zone": "缓冲区", "station_type": "human_activity"}, "geometry": {"type": "Point", "coordinates": [103.034451, 39.08794]}}, {"type": "Feature", "properties": {"name": "人类活动监测点-0017", "type": "城镇用地", "zone": "实验区", "station_type": "human_activity"}, "geometry": {"type": "Point", "coordinates": [102.03742, 37.800963]}}, {"type": "Feature", "properties": {"name": "人类活动监测点-0018", "type": "工矿用地", "zone": "外围保护区", "station_type": "human_activity"}, "geometry": {"type": "Point", "coordinates": [96.653488, 37.159698]}}, {"type": "Feature", "properties": {"name": "人类活动监测点-0019", "type": "农村居民地", "zone": "实验区", "station_type": "human_activity"}, "geometry": {"type": "Point", "coordinates": [101.969201, 38.925885]}}, {"type": "Feature", "properties": {"name": "人类活动监测点-0020", "type": "工矿用地", "zone": "缓冲区", "station_type": "human_activity"}, "geometry": {"type": "Point", "coordinates": [103.490186, 37.262605]}}, {"type": "Feature", "properties": {"name": "人类活动监测点-0021", "type": "其他建设用地", "zone": "实验区", "station_type": "human_activity"}, "geometry": {"type": "Point", "coordinates": [100.11265, 38.295523]}}, {"type": "Feature", "properties": {"name": "人类活动监测点-0022", "type": "农村居民地", "zone": "实验区", "station_type": "human_activity"}, "geometry": {"type": "Point", "coordinates": [98.014862, 38.499452]}}, {"type": "Feature", "properties": {"name": "人类活动监测点-0023", "type": "城镇用地", "zone": "核心区", "station_type": "human_activity"}, "geometry": {"type": "Point", "coordinates": [98.084898, 38.189687]}}, {"type": "Feature", "properties": {"name": "人类活动监测点-0024", "type": "农村居民地", "zone": "实验区", "station_type": "human_activity"}, "geometry": {"type": "Point", "coordinates": [98.698679, 39.014696]}}, {"type": "Feature", "properties": {"name": "人类活动监测点-0025", "type": "工矿用地", "zone": "外围保护区", "station_type": "human_activity"}, "geometry": {"type": "Point", "coordinates": [100.121493, 39.794335]}}, {"type": "Feature", "properties": {"name": "人类活动监测点-0026", "type": "其他建设用地", "zone": "实验区", "station_type": "human_activity"}, "geometry": {"type": "Point", "coordinates": [99.099095, 38.123567]}}, {"type": "Feature", "properties": {"name": "人类活动监测点-0027", "type": "工矿用地", "zone": "实验区", "station_type": "human_activity"}, "geometry": {"type": "Point", "coordinates": [101.057632, 37.773613]}}, {"type": "Feature", "properties": {"name": "人类活动监测点-0028", "type": "工矿用地", "zone": "实验区", "station_type": "human_activity"}, "geometry": {"type": "Point", "coordinates": [101.480256, 38.380991]}}, {"type": "Feature", "properties": {"name": "人类活动监测点-0029", "type": "工矿用地", "zone": "实验区", "station_type": "human_activity"}, "geometry": {"type": "Point", "coordinates": [98.429613, 39.400484]}}, {"type": "Feature", "properties": {"name": "人类活动监测点-0030", "type": "工矿用地", "zone": "实验区", "station_type": "human_activity"}, "geometry": {"type": "Point", "coordinates": [102.402644, 38.337928]}}, {"type": "Feature", "properties": {"name": "人类活动监测点-0031", "type": "其他建设用地", "zone": "实验区", "station_type": "human_activity"}, "geometry": {"type": "Point", "coordinates": [97.453206, 37.670952]}}, {"type": "Feature", "properties": {"name": "人类活动监测点-0032", "type": "农村居民地", "zone": "实验区", "station_type": "human_activity"}, "geometry": {"type": "Point", "coordinates": [96.44427, 38.477126]}}, {"type": "Feature", "properties": {"name": "人类活动监测点-0033", "type": "工矿用地", "zone": "实验区", "station_type": "human_activity"}, "geometry": {"type": "Point", "coordinates": [96.945823, 39.602874]}}, {"type": "Feature", "properties": {"name": "人类活动监测点-0034", "type": "农村居民地", "zone": "实验区", "station_type": "human_activity"}, "geometry": {"type": "Point", "coordinates": [100.659998, 37.446997]}}, {"type": "Feature", "properties": {"name": "人类活动监测点-0035", "type": "其他建设用地", "zone": "实验区", "station_type": "human_activity"}, "geometry": {"type": "Point", "coordinates": [98.425446, 39.086514]}}, {"type": "Feature", "properties": {"name": "人类活动监测点-0036", "type": "工矿用地", "zone": "缓冲区", "station_type": "human_activity"}, "geometry": {"type": "Point", "coordinates": [102.541344, 39.484662]}}, {"type": "Feature", "properties": {"name": "人类活动监测点-0037", "type": "工矿用地", "zone": "实验区", "station_type": "human_activity"}, "geometry": {"type": "Point", "coordinates": [97.499438, 37.814883]}}, {"type": "Feature", "properties": {"name": "人类活动监测点-0038", "type": "城镇用地", "zone": "实验区", "station_type": "human_activity"}, "geometry": {"type": "Point", "coordinates": [103.050191, 38.22977]}}, {"type": "Feature", "properties": {"name": "人类活动监测点-0039", "type": "其他建设用地", "zone": "实验区", "station_type": "human_activity"}, "geometry": {"type": "Point", "coordinates": [101.771034, 38.375288]}}, {"type": "Feature", "properties": {"name": "人类活动监测点-0040", "type": "工矿用地", "zone": "实验区", "station_type": "human_activity"}, "geometry": {"type": "Point", "coordinates": [96.815688, 37.57033]}}, {"type": "Feature", "properties": {"name": "人类活动监测点-0041", "type": "城镇用地", "zone": "实验区", "station_type": "human_activity"}, "geometry": {"type": "Point", "coordinates": [98.616711, 37.183393]}}, {"type": "Feature", "properties": {"name": "人类活动监测点-0042", "type": "其他建设用地", "zone": "实验区", "station_type": "human_activity"}, "geometry": {"type": "Point", "coordinates": [98.850335, 38.385515]}}, {"type": "Feature", "properties": {"name": "人类活动监测点-0043", "type": "农村居民地", "zone": "实验区", "station_type": "human_activity"}, "geometry": {"type": "Point", "coordinates": [96.117514, 39.141544]}}, {"type": "Feature", "properties": {"name": "人类活动监测点-0044", "type": "工矿用地", "zone": "外围保护区", "station_type": "human_activity"}, "geometry": {"type": "Point", "coordinates": [100.153178, 39.050025]}}, {"type": "Feature", "properties": {"name": "人类活动监测点-0045", "type": "工矿用地", "zone": "实验区", "station_type": "human_activity"}, "geometry": {"type": "Point", "coordinates": [101.042831, 37.778473]}}, {"type": "Feature", "properties": {"name": "人类活动监测点-0046", "type": "其他建设用地", "zone": "实验区", "station_type": "human_activity"}, "geometry": {"type": "Point", "coordinates": [102.224206, 38.474612]}}, {"type": "Feature", "properties": {"name": "人类活动监测点-0047", "type": "工矿用地", "zone": "实验区", "station_type": "human_activity"}, "geometry": {"type": "Point", "coordinates": [101.083378, 38.8353]}}, {"type": "Feature", "properties": {"name": "人类活动监测点-0048", "type": "工矿用地", "zone": "实验区", "station_type": "human_activity"}, "geometry": {"type": "Point", "coordinates": [97.831415, 37.012262]}}, {"type": "Feature", "properties": {"name": "人类活动监测点-0049", "type": "工矿用地", "zone": "实验区", "station_type": "human_activity"}, "geometry": {"type": "Point", "coordinates": [100.560958, 38.93861]}}, {"type": "Feature", "properties": {"name": "人类活动监测点-0050", "type": "工矿用地", "zone": "实验区", "station_type": "human_activity"}, "geometry": {"type": "Point", "coordinates": [102.623329, 38.627919]}}, {"type": "Feature", "properties": {"name": "人类活动监测点-0051", "type": "农村居民地", "zone": "实验区", "station_type": "human_activity"}, "geometry": {"type": "Point", "coordinates": [100.425919, 37.273507]}}, {"type": "Feature", "properties": {"name": "人类活动监测点-0052", "type": "工矿用地", "zone": "实验区", "station_type": "human_activity"}, "geometry": {"type": "Point", "coordinates": [100.433803, 39.212107]}}, {"type": "Feature", "properties": {"name": "人类活动监测点-0053", "type": "工矿用地", "zone": "实验区", "station_type": "human_activity"}, "geometry": {"type": "Point", "coordinates": [100.596683, 39.380502]}}, {"type": "Feature", "properties": {"name": "人类活动监测点-0054", "type": "工矿用地", "zone": "缓冲区", "station_type": "human_activity"}, "geometry": {"type": "Point", "coordinates": [98.442361, 39.242451]}}, {"type": "Feature", "properties": {"name": "人类活动监测点-0055", "type": "其他建设用地", "zone": "实验区", "station_type": "human_activity"}, "geometry": {"type": "Point", "coordinates": [100.637324, 37.109559]}}, {"type": "Feature", "properties": {"name": "人类活动监测点-0056", "type": "其他建设用地", "zone": "实验区", "station_type": "human_activity"}, "geometry": {"type": "Point", "coordinates": [101.449653, 38.61925]}}, {"type": "Feature", "properties": {"name": "人类活动监测点-0057", "type": "水库坑塘", "zone": "实验区", "station_type": "human_activity"}, "geometry": {"type": "Point", "coordinates": [98.194359, 37.137276]}}, {"type": "Feature", "properties": {"name": "人类活动监测点-0058", "type": "农村居民地", "zone": "缓冲区", "station_type": "human_activity"}, "geometry": {"type": "Point", "coordinates": [99.108692, 38.520997]}}, {"type": "Feature", "properties": {"name": "人类活动监测点-0059", "type": "农村居民地", "zone": "核心区", "station_type": "human_activity"}, "geometry": {"type": "Point", "coordinates": [100.783478, 38.279236]}}, {"type": "Feature", "properties": {"name": "人类活动监测点-0060", "type": "工矿用地", "zone": "实验区", "station_type": "human_activity"}, "geometry": {"type": "Point", "coordinates": [98.282216, 38.332379]}}, {"type": "Feature", "properties": {"name": "人类活动监测点-0061", "type": "农村居民地", "zone": "实验区", "station_type": "human_activity"}, "geometry": {"type": "Point", "coordinates": [102.627805, 38.854211]}}, {"type": "Feature", "properties": {"name": "人类活动监测点-0062", "type": "工矿用地", "zone": "实验区", "station_type": "human_activity"}, "geometry": {"type": "Point", "coordinates": [103.497064, 39.369693]}}, {"type": "Feature", "properties": {"name": "人类活动监测点-0063", "type": "其他建设用地", "zone": "核心区", "station_type": "human_activity"}, "geometry": {"type": "Point", "coordinates": [102.454821, 39.221823]}}, {"type": "Feature", "properties": {"name": "人类活动监测点-0064", "type": "工矿用地", "zone": "外围保护区", "station_type": "human_activity"}, "geometry": {"type": "Point", "coordinates": [100.707054, 37.063079]}}, {"type": "Feature", "properties": {"name": "人类活动监测点-0065", "type": "工矿用地", "zone": "实验区", "station_type": "human_activity"}, "geometry": {"type": "Point", "coordinates": [97.333891, 38.332356]}}, {"type": "Feature", "properties": {"name": "人类活动监测点-0066", "type": "工矿用地", "zone": "实验区", "station_type": "human_activity"}, "geometry": {"type": "Point", "coordinates": [97.036247, 39.518224]}}, {"type": "Feature", "properties": {"name": "人类活动监测点-0067", "type": "工矿用地", "zone": "实验区", "station_type": "human_activity"}, "geometry": {"type": "Point", "coordinates": [97.733884, 38.623004]}}, {"type": "Feature", "properties": {"name": "人类活动监测点-0068", "type": "工矿用地", "zone": "实验区", "station_type": "human_activity"}, "geometry": {"type": "Point", "coordinates": [102.35003, 38.39406]}}, {"type": "Feature", "properties": {"name": "人类活动监测点-0069", "type": "工矿用地", "zone": "实验区", "station_type": "human_activity"}, "geometry": {"type": "Point", "coordinates": [101.319125, 37.20666]}}, {"type": "Feature", "properties": {"name": "人类活动监测点-0070", "type": "工矿用地", "zone": "核心区", "station_type": "human_activity"}, "geometry": {"type": "Point", "coordinates": [99.668717, 37.170698]}}, {"type": "Feature", "properties": {"name": "人类活动监测点-0071", "type": "城镇用地", "zone": "缓冲区", "station_type": "human_activity"}, "geometry": {"type": "Point", "coordinates": [103.297783, 38.603282]}}, {"type": "Feature", "properties": {"name": "人类活动监测点-0072", "type": "工矿用地", "zone": "实验区", "station_type": "human_activity"}, "geometry": {"type": "Point", "coordinates": [97.50305, 37.573536]}}, {"type": "Feature", "properties": {"name": "人类活动监测点-0073", "type": "工矿用地", "zone": "实验区", "station_type": "human_activity"}, "geometry": {"type": "Point", "coordinates": [99.01625, 37.13446]}}, {"type": "Feature", "properties": {"name": "人类活动监测点-0074", "type": "工矿用地", "zone": "实验区", "station_type": "human_activity"}, "geometry": {"type": "Point", "coordinates": [98.48958, 38.833727]}}, {"type": "Feature", "properties": {"name": "人类活动监测点-0075", "type": "水库坑塘", "zone": "实验区", "station_type": "human_activity"}, "geometry": {"type": "Point", "coordinates": [99.234802, 37.109944]}}, {"type": "Feature", "properties": {"name": "人类活动监测点-0076", "type": "工矿用地", "zone": "实验区", "station_type": "human_activity"}, "geometry": {"type": "Point", "coordinates": [99.530074, 38.535804]}}, {"type": "Feature", "properties": {"name": "人类活动监测点-0077", "type": "农村居民地", "zone": "实验区", "station_type": "human_activity"}, "geometry": {"type": "Point", "coordinates": [103.175582, 38.416171]}}, {"type": "Feature", "properties": {"name": "人类活动监测点-0078", "type": "工矿用地", "zone": "实验区", "station_type": "human_activity"}, "geometry": {"type": "Point", "coordinates": [98.219112, 39.382367]}}, {"type": "Feature", "properties": {"name": "人类活动监测点-0079", "type": "其他建设用地", "zone": "实验区", "station_type": "human_activity"}, "geometry": {"type": "Point", "coordinates": [100.520745, 38.910193]}}, {"type": "Feature", "properties": {"name": "人类活动监测点-0080", "type": "工矿用地", "zone": "实验区", "station_type": "human_activity"}, "geometry": {"type": "Point", "coordinates": [97.212239, 39.046034]}}, {"type": "Feature", "properties": {"name": "人类活动监测点-0081", "type": "其他建设用地", "zone": "缓冲区", "station_type": "human_activity"}, "geometry": {"type": "Point", "coordinates": [100.654112, 38.145427]}}, {"type": "Feature", "properties": {"name": "人类活动监测点-0082", "type": "工矿用地", "zone": "外围保护区", "station_type": "human_activity"}, "geometry": {"type": "Point", "coordinates": [103.175963, 39.539655]}}, {"type": "Feature", "properties": {"name": "人类活动监测点-0083", "type": "其他建设用地", "zone": "外围保护区", "station_type": "human_activity"}, "geometry": {"type": "Point", "coordinates": [98.131635, 39.435486]}}, {"type": "Feature", "properties": {"name": "人类活动监测点-0084", "type": "水库坑塘", "zone": "实验区", "station_type": "human_activity"}, "geometry": {"type": "Point", "coordinates": [103.446392, 38.067138]}}, {"type": "Feature", "properties": {"name": "人类活动监测点-0085", "type": "工矿用地", "zone": "实验区", "station_type": "human_activity"}, "geometry": {"type": "Point", "coordinates": [97.999205, 37.749286]}}, {"type": "Feature", "properties": {"name": "人类活动监测点-0086", "type": "工矿用地", "zone": "实验区", "station_type": "human_activity"}, "geometry": {"type": "Point", "coordinates": [96.534184, 37.681433]}}, {"type": "Feature", "properties": {"name": "人类活动监测点-0087", "type": "其他建设用地", "zone": "缓冲区", "station_type": "human_activity"}, "geometry": {"type": "Point", "coordinates": [102.730963, 37.023777]}}, {"type": "Feature", "properties": {"name": "人类活动监测点-0088", "type": "工矿用地", "zone": "实验区", "station_type": "human_activity"}, "geometry": {"type": "Point", "coordinates": [100.358684, 37.910183]}}, {"type": "Feature", "properties": {"name": "人类活动监测点-0089", "type": "工矿用地", "zone": "实验区", "station_type": "human_activity"}, "geometry": {"type": "Point", "coordinates": [103.073364, 37.211053]}}, {"type": "Feature", "properties": {"name": "人类活动监测点-0090", "type": "工矿用地", "zone": "实验区", "station_type": "human_activity"}, "geometry": {"type": "Point", "coordinates": [98.114324, 39.745875]}}, {"type": "Feature", "properties": {"name": "人类活动监测点-0091", "type": "工矿用地", "zone": "核心区", "station_type": "human_activity"}, "geometry": {"type": "Point", "coordinates": [97.269943, 37.867955]}}, {"type": "Feature", "properties": {"name": "人类活动监测点-0092", "type": "工矿用地", "zone": "实验区", "station_type": "human_activity"}, "geometry": {"type": "Point", "coordinates": [98.384429, 37.386246]}}, {"type": "Feature", "properties": {"name": "人类活动监测点-0093", "type": "其他建设用地", "zone": "实验区", "station_type": "human_activity"}, "geometry": {"type": "Point", "coordinates": [103.48012, 37.084144]}}, {"type": "Feature", "properties": {"name": "人类活动监测点-0094", "type": "工矿用地", "zone": "实验区", "station_type": "human_activity"}, "geometry": {"type": "Point", "coordinates": [101.217533, 38.603226]}}, {"type": "Feature", "properties": {"name": "人类活动监测点-0095", "type": "工矿用地", "zone": "实验区", "station_type": "human_activity"}, "geometry": {"type": "Point", "coordinates": [102.664799, 38.650722]}}, {"type": "Feature", "properties": {"name": "人类活动监测点-0096", "type": "其他建设用地", "zone": "实验区", "station_type": "human_activity"}, "geometry": {"type": "Point", "coordinates": [100.740826, 39.588891]}}, {"type": "Feature", "properties": {"name": "人类活动监测点-0097", "type": "其他建设用地", "zone": "实验区", "station_type": "human_activity"}, "geometry": {"type": "Point", "coordinates": [102.336369, 37.22186]}}, {"type": "Feature", "properties": {"name": "人类活动监测点-0098", "type": "农村居民地", "zone": "实验区", "station_type": "human_activity"}, "geometry": {"type": "Point", "coordinates": [100.241009, 39.276361]}}, {"type": "Feature", "properties": {"name": "人类活动监测点-0099", "type": "水库坑塘", "zone": "外围保护区", "station_type": "human_activity"}, "geometry": {"type": "Point", "coordinates": [98.652495, 39.725574]}}, {"type": "Feature", "properties": {"name": "人类活动监测点-0100", "type": "其他建设用地", "zone": "实验区", "station_type": "human_activity"}, "geometry": {"type": "Point", "coordinates": [102.296978, 39.605043]}}, {"type": "Feature", "properties": {"name": "人类活动监测点-0101", "type": "工矿用地", "zone": "实验区", "station_type": "human_activity"}, "geometry": {"type": "Point", "coordinates": [97.554582, 37.766712]}}, {"type": "Feature", "properties": {"name": "人类活动监测点-0102", "type": "其他建设用地", "zone": "实验区", "station_type": "human_activity"}, "geometry": {"type": "Point", "coordinates": [98.250126, 38.703127]}}, {"type": "Feature", "properties": {"name": "人类活动监测点-0103", "type": "农村居民地", "zone": "实验区", "station_type": "human_activity"}, "geometry": {"type": "Point", "coordinates": [101.87399, 39.188026]}}, {"type": "Feature", "properties": {"name": "人类活动监测点-0104", "type": "其他建设用地", "zone": "实验区", "station_type": "human_activity"}, "geometry": {"type": "Point", "coordinates": [97.144969, 37.835766]}}, {"type": "Feature", "properties": {"name": "人类活动监测点-0105", "type": "农村居民地", "zone": "实验区", "station_type": "human_activity"}, "geometry": {"type": "Point", "coordinates": [101.408109, 38.453784]}}, {"type": "Feature", "properties": {"name": "人类活动监测点-0106", "type": "城镇用地", "zone": "外围保护区", "station_type": "human_activity"}, "geometry": {"type": "Point", "coordinates": [98.906989, 37.497301]}}, {"type": "Feature", "properties": {"name": "人类活动监测点-0107", "type": "城镇用地", "zone": "外围保护区", "station_type": "human_activity"}, "geometry": {"type": "Point", "coordinates": [102.854705, 37.090866]}}, {"type": "Feature", "properties": {"name": "人类活动监测点-0108", "type": "工矿用地", "zone": "实验区", "station_type": "human_activity"}, "geometry": {"type": "Point", "coordinates": [97.537509, 39.290341]}}, {"type": "Feature", "properties": {"name": "人类活动监测点-0109", "type": "工矿用地", "zone": "实验区", "station_type": "human_activity"}, "geometry": {"type": "Point", "coordinates": [103.109163, 37.366925]}}, {"type": "Feature", "properties": {"name": "人类活动监测点-0110", "type": "工矿用地", "zone": "实验区", "station_type": "human_activity"}, "geometry": {"type": "Point", "coordinates": [96.779903, 37.848364]}}, {"type": "Feature", "properties": {"name": "人类活动监测点-0111", "type": "工矿用地", "zone": "缓冲区", "station_type": "human_activity"}, "geometry": {"type": "Point", "coordinates": [98.346259, 37.838552]}}, {"type": "Feature", "properties": {"name": "人类活动监测点-0112", "type": "工矿用地", "zone": "实验区", "station_type": "human_activity"}, "geometry": {"type": "Point", "coordinates": [102.297735, 37.351855]}}, {"type": "Feature", "properties": {"name": "人类活动监测点-0113", "type": "工矿用地", "zone": "实验区", "station_type": "human_activity"}, "geometry": {"type": "Point", "coordinates": [101.89317, 39.257636]}}, {"type": "Feature", "properties": {"name": "人类活动监测点-0114", "type": "工矿用地", "zone": "实验区", "station_type": "human_activity"}, "geometry": {"type": "Point", "coordinates": [102.236554, 39.517305]}}, {"type": "Feature", "properties": {"name": "人类活动监测点-0115", "type": "其他建设用地", "zone": "外围保护区", "station_type": "human_activity"}, "geometry": {"type": "Point", "coordinates": [96.183806, 37.548455]}}, {"type": "Feature", "properties": {"name": "人类活动监测点-0116", "type": "其他建设用地", "zone": "实验区", "station_type": "human_activity"}, "geometry": {"type": "Point", "coordinates": [97.726314, 38.446681]}}, {"type": "Feature", "properties": {"name": "人类活动监测点-0117", "type": "农村居民地", "zone": "实验区", "station_type": "human_activity"}, "geometry": {"type": "Point", "coordinates": [101.341916, 39.168402]}}, {"type": "Feature", "properties": {"name": "人类活动监测点-0118", "type": "农村居民地", "zone": "实验区", "station_type": "human_activity"}, "geometry": {"type": "Point", "coordinates": [99.305202, 37.593821]}}, {"type": "Feature", "properties": {"name": "人类活动监测点-0119", "type": "工矿用地", "zone": "实验区", "station_type": "human_activity"}, "geometry": {"type": "Point", "coordinates": [98.637607, 38.316075]}}, {"type": "Feature", "properties": {"name": "人类活动监测点-0120", "type": "工矿用地", "zone": "实验区", "station_type": "human_activity"}, "geometry": {"type": "Point", "coordinates": [98.108845, 39.51754]}}, {"type": "Feature", "properties": {"name": "人类活动监测点-0121", "type": "农村居民地", "zone": "核心区", "station_type": "human_activity"}, "geometry": {"type": "Point", "coordinates": [100.341075, 38.183889]}}, {"type": "Feature", "properties": {"name": "人类活动监测点-0122", "type": "工矿用地", "zone": "实验区", "station_type": "human_activity"}, "geometry": {"type": "Point", "coordinates": [96.919325, 37.876214]}}, {"type": "Feature", "properties": {"name": "人类活动监测点-0123", "type": "工矿用地", "zone": "实验区", "station_type": "human_activity"}, "geometry": {"type": "Point", "coordinates": [99.148583, 38.628064]}}, {"type": "Feature", "properties": {"name": "人类活动监测点-0124", "type": "农村居民地", "zone": "实验区", "station_type": "human_activity"}, "geometry": {"type": "Point", "coordinates": [99.144687, 38.562933]}}, {"type": "Feature", "properties": {"name": "人类活动监测点-0125", "type": "其他建设用地", "zone": "实验区", "station_type": "human_activity"}, "geometry": {"type": "Point", "coordinates": [99.481543, 37.836063]}}, {"type": "Feature", "properties": {"name": "人类活动监测点-0126", "type": "水库坑塘", "zone": "实验区", "station_type": "human_activity"}, "geometry": {"type": "Point", "coordinates": [101.365672, 39.495549]}}, {"type": "Feature", "properties": {"name": "人类活动监测点-0127", "type": "工矿用地", "zone": "缓冲区", "station_type": "human_activity"}, "geometry": {"type": "Point", "coordinates": [101.373947, 38.137016]}}, {"type": "Feature", "properties": {"name": "人类活动监测点-0128", "type": "工矿用地", "zone": "实验区", "station_type": "human_activity"}, "geometry": {"type": "Point", "coordinates": [100.753446, 38.980729]}}, {"type": "Feature", "properties": {"name": "人类活动监测点-0129", "type": "工矿用地", "zone": "实验区", "station_type": "human_activity"}, "geometry": {"type": "Point", "coordinates": [101.83114, 38.921105]}}, {"type": "Feature", "properties": {"name": "人类活动监测点-0130", "type": "工矿用地", "zone": "实验区", "station_type": "human_activity"}, "geometry": {"type": "Point", "coordinates": [102.700869, 39.707112]}}, {"type": "Feature", "properties": {"name": "人类活动监测点-0131", "type": "工矿用地", "zone": "外围保护区", "station_type": "human_activity"}, "geometry": {"type": "Point", "coordinates": [98.419968, 38.929902]}}, {"type": "Feature", "properties": {"name": "人类活动监测点-0132", "type": "工矿用地", "zone": "实验区", "station_type": "human_activity"}, "geometry": {"type": "Point", "coordinates": [98.758627, 39.596641]}}, {"type": "Feature", "properties": {"name": "人类活动监测点-0133", "type": "工矿用地", "zone": "外围保护区", "station_type": "human_activity"}, "geometry": {"type": "Point", "coordinates": [99.157455, 37.146189]}}, {"type": "Feature", "properties": {"name": "人类活动监测点-0134", "type": "工矿用地", "zone": "实验区", "station_type": "human_activity"}, "geometry": {"type": "Point", "coordinates": [100.401539, 39.390121]}}, {"type": "Feature", "properties": {"name": "人类活动监测点-0135", "type": "城镇用地", "zone": "实验区", "station_type": "human_activity"}, "geometry": {"type": "Point", "coordinates": [100.872424, 39.356782]}}, {"type": "Feature", "properties": {"name": "人类活动监测点-0136", "type": "水库坑塘", "zone": "实验区", "station_type": "human_activity"}, "geometry": {"type": "Point", "coordinates": [98.098734, 38.986086]}}, {"type": "Feature", "properties": {"name": "人类活动监测点-0137", "type": "工矿用地", "zone": "实验区", "station_type": "human_activity"}, "geometry": {"type": "Point", "coordinates": [96.638487, 37.699903]}}, {"type": "Feature", "properties": {"name": "人类活动监测点-0138", "type": "工矿用地", "zone": "实验区", "station_type": "human_activity"}, "geometry": {"type": "Point", "coordinates": [101.163576, 37.950619]}}, {"type": "Feature", "properties": {"name": "人类活动监测点-0139", "type": "农村居民地", "zone": "实验区", "station_type": "human_activity"}, "geometry": {"type": "Point", "coordinates": [103.432542, 37.84781]}}, {"type": "Feature", "properties": {"name": "人类活动监测点-0140", "type": "工矿用地", "zone": "实验区", "station_type": "human_activity"}, "geometry": {"type": "Point", "coordinates": [100.741189, 39.499564]}}, {"type": "Feature", "properties": {"name": "人类活动监测点-0141", "type": "农村居民地", "zone": "实验区", "station_type": "human_activity"}, "geometry": {"type": "Point", "coordinates": [98.809126, 37.048488]}}, {"type": "Feature", "properties": {"name": "人类活动监测点-0142", "type": "其他建设用地", "zone": "实验区", "station_type": "human_activity"}, "geometry": {"type": "Point", "coordinates": [96.973419, 37.960388]}}, {"type": "Feature", "properties": {"name": "人类活动监测点-0143", "type": "工矿用地", "zone": "实验区", "station_type": "human_activity"}, "geometry": {"type": "Point", "coordinates": [101.376924, 38.334226]}}, {"type": "Feature", "properties": {"name": "人类活动监测点-0144", "type": "其他建设用地", "zone": "实验区", "station_type": "human_activity"}, "geometry": {"type": "Point", "coordinates": [102.895322, 37.677012]}}, {"type": "Feature", "properties": {"name": "人类活动监测点-0145", "type": "工矿用地", "zone": "核心区", "station_type": "human_activity"}, "geometry": {"type": "Point", "coordinates": [96.25897, 37.013764]}}, {"type": "Feature", "properties": {"name": "人类活动监测点-0146", "type": "工矿用地", "zone": "实验区", "station_type": "human_activity"}, "geometry": {"type": "Point", "coordinates": [103.086657, 39.388974]}}, {"type": "Feature", "properties": {"name": "人类活动监测点-0147", "type": "农村居民地", "zone": "缓冲区", "station_type": "human_activity"}, "geometry": {"type": "Point", "coordinates": [99.048314, 38.891643]}}, {"type": "Feature", "properties": {"name": "人类活动监测点-0148", "type": "工矿用地", "zone": "外围保护区", "station_type": "human_activity"}, "geometry": {"type": "Point", "coordinates": [99.367829, 39.400252]}}, {"type": "Feature", "properties": {"name": "人类活动监测点-0149", "type": "工矿用地", "zone": "实验区", "station_type": "human_activity"}, "geometry": {"type": "Point", "coordinates": [99.463122, 37.699072]}}, {"type": "Feature", "properties": {"name": "人类活动监测点-0150", "type": "其他建设用地", "zone": "外围保护区", "station_type": "human_activity"}, "geometry": {"type": "Point", "coordinates": [101.627224, 39.00676]}}, {"type": "Feature", "properties": {"name": "人类活动监测点-0151", "type": "农村居民地", "zone": "实验区", "station_type": "human_activity"}, "geometry": {"type": "Point", "coordinates": [99.729713, 39.121474]}}, {"type": "Feature", "properties": {"name": "人类活动监测点-0152", "type": "工矿用地", "zone": "实验区", "station_type": "human_activity"}, "geometry": {"type": "Point", "coordinates": [96.403918, 39.089877]}}, {"type": "Feature", "properties": {"name": "人类活动监测点-0153", "type": "工矿用地", "zone": "实验区", "station_type": "human_activity"}, "geometry": {"type": "Point", "coordinates": [98.919856, 37.114847]}}, {"type": "Feature", "properties": {"name": "人类活动监测点-0154", "type": "工矿用地", "zone": "实验区", "station_type": "human_activity"}, "geometry": {"type": "Point", "coordinates": [97.095234, 39.408673]}}, {"type": "Feature", "properties": {"name": "人类活动监测点-0155", "type": "工矿用地", "zone": "缓冲区", "station_type": "human_activity"}, "geometry": {"type": "Point", "coordinates": [101.325966, 37.895656]}}, {"type": "Feature", "properties": {"name": "人类活动监测点-0156", "type": "工矿用地", "zone": "外围保护区", "station_type": "human_activity"}, "geometry": {"type": "Point", "coordinates": [98.65957, 37.779001]}}, {"type": "Feature", "properties": {"name": "人类活动监测点-0157", "type": "工矿用地", "zone": "实验区", "station_type": "human_activity"}, "geometry": {"type": "Point", "coordinates": [101.290485, 39.114904]}}, {"type": "Feature", "properties": {"name": "人类活动监测点-0158", "type": "工矿用地", "zone": "实验区", "station_type": "human_activity"}, "geometry": {"type": "Point", "coordinates": [96.702844, 37.581555]}}, {"type": "Feature", "properties": {"name": "人类活动监测点-0159", "type": "农村居民地", "zone": "实验区", "station_type": "human_activity"}, "geometry": {"type": "Point", "coordinates": [101.208576, 39.481825]}}, {"type": "Feature", "properties": {"name": "人类活动监测点-0160", "type": "工矿用地", "zone": "实验区", "station_type": "human_activity"}, "geometry": {"type": "Point", "coordinates": [102.621779, 39.176346]}}, {"type": "Feature", "properties": {"name": "人类活动监测点-0161", "type": "工矿用地", "zone": "实验区", "station_type": "human_activity"}, "geometry": {"type": "Point", "coordinates": [101.732934, 38.348554]}}, {"type": "Feature", "properties": {"name": "人类活动监测点-0162", "type": "水库坑塘", "zone": "实验区", "station_type": "human_activity"}, "geometry": {"type": "Point", "coordinates": [97.746736, 37.528587]}}, {"type": "Feature", "properties": {"name": "人类活动监测点-0163", "type": "其他建设用地", "zone": "实验区", "station_type": "human_activity"}, "geometry": {"type": "Point", "coordinates": [101.727811, 38.082013]}}, {"type": "Feature", "properties": {"name": "人类活动监测点-0164", "type": "农村居民地", "zone": "实验区", "station_type": "human_activity"}, "geometry": {"type": "Point", "coordinates": [102.139798, 39.203784]}}, {"type": "Feature", "properties": {"name": "人类活动监测点-0165", "type": "水库坑塘", "zone": "实验区", "station_type": "human_activity"}, "geometry": {"type": "Point", "coordinates": [103.17175, 38.578507]}}, {"type": "Feature", "properties": {"name": "人类活动监测点-0166", "type": "工矿用地", "zone": "实验区", "station_type": "human_activity"}, "geometry": {"type": "Point", "coordinates": [102.124413, 39.081477]}}, {"type": "Feature", "properties": {"name": "人类活动监测点-0167", "type": "其他建设用地", "zone": "外围保护区", "station_type": "human_activity"}, "geometry": {"type": "Point", "coordinates": [97.776487, 39.161871]}}, {"type": "Feature", "properties": {"name": "人类活动监测点-0168", "type": "工矿用地", "zone": "实验区", "station_type": "human_activity"}, "geometry": {"type": "Point", "coordinates": [100.447274, 39.183149]}}, {"type": "Feature", "properties": {"name": "人类活动监测点-0169", "type": "农村居民地", "zone": "外围保护区", "station_type": "human_activity"}, "geometry": {"type": "Point", "coordinates": [102.44501, 37.159833]}}, {"type": "Feature", "properties": {"name": "人类活动监测点-0170", "type": "农村居民地", "zone": "实验区", "station_type": "human_activity"}, "geometry": {"type": "Point", "coordinates": [99.848917, 38.154593]}}, {"type": "Feature", "properties": {"name": "人类活动监测点-0171", "type": "水库坑塘", "zone": "实验区", "station_type": "human_activity"}, "geometry": {"type": "Point", "coordinates": [96.113027, 38.042717]}}, {"type": "Feature", "properties": {"name": "人类活动监测点-0172", "type": "其他建设用地", "zone": "核心区", "station_type": "human_activity"}, "geometry": {"type": "Point", "coordinates": [101.596408, 38.305691]}}, {"type": "Feature", "properties": {"name": "人类活动监测点-0173", "type": "水库坑塘", "zone": "缓冲区", "station_type": "human_activity"}, "geometry": {"type": "Point", "coordinates": [96.899787, 37.926715]}}, {"type": "Feature", "properties": {"name": "人类活动监测点-0174", "type": "工矿用地", "zone": "实验区", "station_type": "human_activity"}, "geometry": {"type": "Point", "coordinates": [96.677777, 39.039712]}}, {"type": "Feature", "properties": {"name": "人类活动监测点-0175", "type": "工矿用地", "zone": "实验区", "station_type": "human_activity"}, "geometry": {"type": "Point", "coordinates": [101.275963, 39.512408]}}, {"type": "Feature", "properties": {"name": "人类活动监测点-0176", "type": "水库坑塘", "zone": "核心区", "station_type": "human_activity"}, "geometry": {"type": "Point", "coordinates": [101.397473, 38.476014]}}, {"type": "Feature", "properties": {"name": "人类活动监测点-0177", "type": "工矿用地", "zone": "实验区", "station_type": "human_activity"}, "geometry": {"type": "Point", "coordinates": [98.855801, 37.860681]}}, {"type": "Feature", "properties": {"name": "人类活动监测点-0178", "type": "农村居民地", "zone": "实验区", "station_type": "human_activity"}, "geometry": {"type": "Point", "coordinates": [97.756941, 37.556019]}}, {"type": "Feature", "properties": {"name": "人类活动监测点-0179", "type": "水库坑塘", "zone": "缓冲区", "station_type": "human_activity"}, "geometry": {"type": "Point", "coordinates": [101.52101, 37.094914]}}, {"type": "Feature", "properties": {"name": "人类活动监测点-0180", "type": "其他建设用地", "zone": "外围保护区", "station_type": "human_activity"}, "geometry": {"type": "Point", "coordinates": [99.596123, 39.677904]}}, {"type": "Feature", "properties": {"name": "人类活动监测点-0181", "type": "工矿用地", "zone": "实验区", "station_type": "human_activity"}, "geometry": {"type": "Point", "coordinates": [103.167813, 37.893048]}}, {"type": "Feature", "properties": {"name": "人类活动监测点-0182", "type": "农村居民地", "zone": "实验区", "station_type": "human_activity"}, "geometry": {"type": "Point", "coordinates": [102.021846, 39.762001]}}, {"type": "Feature", "properties": {"name": "人类活动监测点-0183", "type": "工矿用地", "zone": "缓冲区", "station_type": "human_activity"}, "geometry": {"type": "Point", "coordinates": [100.740386, 39.365771]}}, {"type": "Feature", "properties": {"name": "人类活动监测点-0184", "type": "工矿用地", "zone": "实验区", "station_type": "human_activity"}, "geometry": {"type": "Point", "coordinates": [96.129511, 39.685962]}}, {"type": "Feature", "properties": {"name": "人类活动监测点-0185", "type": "城镇用地", "zone": "缓冲区", "station_type": "human_activity"}, "geometry": {"type": "Point", "coordinates": [99.77193, 39.139122]}}, {"type": "Feature", "properties": {"name": "人类活动监测点-0186", "type": "工矿用地", "zone": "实验区", "station_type": "human_activity"}, "geometry": {"type": "Point", "coordinates": [102.267337, 37.385522]}}, {"type": "Feature", "properties": {"name": "人类活动监测点-0187", "type": "工矿用地", "zone": "实验区", "station_type": "human_activity"}, "geometry": {"type": "Point", "coordinates": [101.99509, 38.126182]}}, {"type": "Feature", "properties": {"name": "人类活动监测点-0188", "type": "工矿用地", "zone": "核心区", "station_type": "human_activity"}, "geometry": {"type": "Point", "coordinates": [98.822235, 38.054932]}}, {"type": "Feature", "properties": {"name": "人类活动监测点-0189", "type": "工矿用地", "zone": "实验区", "station_type": "human_activity"}, "geometry": {"type": "Point", "coordinates": [96.674356, 39.636115]}}, {"type": "Feature", "properties": {"name": "人类活动监测点-0190", "type": "工矿用地", "zone": "实验区", "station_type": "human_activity"}, "geometry": {"type": "Point", "coordinates": [96.578149, 38.002145]}}, {"type": "Feature", "properties": {"name": "人类活动监测点-0191", "type": "工矿用地", "zone": "实验区", "station_type": "human_activity"}, "geometry": {"type": "Point", "coordinates": [98.076764, 39.395462]}}, {"type": "Feature", "properties": {"name": "人类活动监测点-0192", "type": "农村居民地", "zone": "实验区", "station_type": "human_activity"}, "geometry": {"type": "Point", "coordinates": [101.963996, 37.182597]}}, {"type": "Feature", "properties": {"name": "人类活动监测点-0193", "type": "其他建设用地", "zone": "实验区", "station_type": "human_activity"}, "geometry": {"type": "Point", "coordinates": [101.39007, 37.640058]}}, {"type": "Feature", "properties": {"name": "人类活动监测点-0194", "type": "城镇用地", "zone": "实验区", "station_type": "human_activity"}, "geometry": {"type": "Point", "coordinates": [102.87927, 37.111109]}}, {"type": "Feature", "properties": {"name": "人类活动监测点-0195", "type": "其他建设用地", "zone": "外围保护区", "station_type": "human_activity"}, "geometry": {"type": "Point", "coordinates": [101.304935, 39.035384]}}, {"type": "Feature", "properties": {"name": "人类活动监测点-0196", "type": "工矿用地", "zone": "实验区", "station_type": "human_activity"}, "geometry": {"type": "Point", "coordinates": [97.192818, 38.166887]}}, {"type": "Feature", "properties": {"name": "人类活动监测点-0197", "type": "其他建设用地", "zone": "实验区", "station_type": "human_activity"}, "geometry": {"type": "Point", "coordinates": [96.284662, 38.603543]}}, {"type": "Feature", "properties": {"name": "人类活动监测点-0198", "type": "水库坑塘", "zone": "实验区", "station_type": "human_activity"}, "geometry": {"type": "Point", "coordinates": [101.469265, 37.124366]}}, {"type": "Feature", "properties": {"name": "人类活动监测点-0199", "type": "其他建设用地", "zone": "实验区", "station_type": "human_activity"}, "geometry": {"type": "Point", "coordinates": [98.484726, 37.697819]}}, {"type": "Feature", "properties": {"name": "人类活动监测点-0200", "type": "其他建设用地", "zone": "实验区", "station_type": "human_activity"}, "geometry": {"type": "Point", "coordinates": [101.840745, 39.164938]}}, {"type": "Feature", "properties": {"name": "人类活动监测点-0201", "type": "城镇用地", "zone": "实验区", "station_type": "human_activity"}, "geometry": {"type": "Point", "coordinates": [103.321834, 37.186399]}}, {"type": "Feature", "properties": {"name": "人类活动监测点-0202", "type": "工矿用地", "zone": "实验区", "station_type": "human_activity"}, "geometry": {"type": "Point", "coordinates": [100.405555, 38.321965]}}, {"type": "Feature", "properties": {"name": "人类活动监测点-0203", "type": "农村居民地", "zone": "实验区", "station_type": "human_activity"}, "geometry": {"type": "Point", "coordinates": [102.772214, 39.069128]}}, {"type": "Feature", "properties": {"name": "人类活动监测点-0204", "type": "工矿用地", "zone": "核心区", "station_type": "human_activity"}, "geometry": {"type": "Point", "coordinates": [97.136583, 37.655708]}}, {"type": "Feature", "properties": {"name": "人类活动监测点-0205", "type": "工矿用地", "zone": "实验区", "station_type": "human_activity"}, "geometry": {"type": "Point", "coordinates": [97.721393, 37.827973]}}, {"type": "Feature", "properties": {"name": "人类活动监测点-0206", "type": "其他建设用地", "zone": "实验区", "station_type": "human_activity"}, "geometry": {"type": "Point", "coordinates": [102.976899, 39.59098]}}, {"type": "Feature", "properties": {"name": "人类活动监测点-0207", "type": "工矿用地", "zone": "实验区", "station_type": "human_activity"}, "geometry": {"type": "Point", "coordinates": [96.980437, 38.139187]}}, {"type": "Feature", "properties": {"name": "人类活动监测点-0208", "type": "工矿用地", "zone": "实验区", "station_type": "human_activity"}, "geometry": {"type": "Point", "coordinates": [101.177933, 39.249238]}}, {"type": "Feature", "properties": {"name": "人类活动监测点-0209", "type": "农村居民地", "zone": "实验区", "station_type": "human_activity"}, "geometry": {"type": "Point", "coordinates": [101.636791, 38.704404]}}, {"type": "Feature", "properties": {"name": "人类活动监测点-0210", "type": "工矿用地", "zone": "缓冲区", "station_type": "human_activity"}, "geometry": {"type": "Point", "coordinates": [97.035666, 37.269837]}}, {"type": "Feature", "properties": {"name": "人类活动监测点-0211", "type": "工矿用地", "zone": "实验区", "station_type": "human_activity"}, "geometry": {"type": "Point", "coordinates": [100.432799, 39.212178]}}, {"type": "Feature", "properties": {"name": "人类活动监测点-0212", "type": "农村居民地", "zone": "实验区", "station_type": "human_activity"}, "geometry": {"type": "Point", "coordinates": [96.58992, 38.586451]}}, {"type": "Feature", "properties": {"name": "人类活动监测点-0213", "type": "工矿用地", "zone": "实验区", "station_type": "human_activity"}, "geometry": {"type": "Point", "coordinates": [99.925635, 37.722223]}}, {"type": "Feature", "properties": {"name": "人类活动监测点-0214", "type": "农村居民地", "zone": "实验区", "station_type": "human_activity"}, "geometry": {"type": "Point", "coordinates": [97.079882, 38.194579]}}, {"type": "Feature", "properties": {"name": "人类活动监测点-0215", "type": "农村居民地", "zone": "实验区", "station_type": "human_activity"}, "geometry": {"type": "Point", "coordinates": [99.442235, 37.638386]}}, {"type": "Feature", "properties": {"name": "人类活动监测点-0216", "type": "其他建设用地", "zone": "实验区", "station_type": "human_activity"}, "geometry": {"type": "Point", "coordinates": [103.335483, 39.392161]}}, {"type": "Feature", "properties": {"name": "人类活动监测点-0217", "type": "工矿用地", "zone": "实验区", "station_type": "human_activity"}, "geometry": {"type": "Point", "coordinates": [98.509981, 38.66308]}}, {"type": "Feature", "properties": {"name": "人类活动监测点-0218", "type": "工矿用地", "zone": "实验区", "station_type": "human_activity"}, "geometry": {"type": "Point", "coordinates": [97.609623, 39.22254]}}, {"type": "Feature", "properties": {"name": "人类活动监测点-0219", "type": "工矿用地", "zone": "缓冲区", "station_type": "human_activity"}, "geometry": {"type": "Point", "coordinates": [100.974588, 37.775426]}}, {"type": "Feature", "properties": {"name": "人类活动监测点-0220", "type": "工矿用地", "zone": "实验区", "station_type": "human_activity"}, "geometry": {"type": "Point", "coordinates": [102.159977, 37.181171]}}, {"type": "Feature", "properties": {"name": "人类活动监测点-0221", "type": "工矿用地", "zone": "外围保护区", "station_type": "human_activity"}, "geometry": {"type": "Point", "coordinates": [98.212255, 37.107805]}}, {"type": "Feature", "properties": {"name": "人类活动监测点-0222", "type": "其他建设用地", "zone": "实验区", "station_type": "human_activity"}, "geometry": {"type": "Point", "coordinates": [100.253482, 39.640463]}}, {"type": "Feature", "properties": {"name": "人类活动监测点-0223", "type": "工矿用地", "zone": "实验区", "station_type": "human_activity"}, "geometry": {"type": "Point", "coordinates": [96.465684, 38.582996]}}, {"type": "Feature", "properties": {"name": "人类活动监测点-0224", "type": "工矿用地", "zone": "实验区", "station_type": "human_activity"}, "geometry": {"type": "Point", "coordinates": [103.409281, 37.063473]}}, {"type": "Feature", "properties": {"name": "人类活动监测点-0225", "type": "工矿用地", "zone": "实验区", "station_type": "human_activity"}, "geometry": {"type": "Point", "coordinates": [103.025612, 39.407496]}}, {"type": "Feature", "properties": {"name": "人类活动监测点-0226", "type": "农村居民地", "zone": "实验区", "station_type": "human_activity"}, "geometry": {"type": "Point", "coordinates": [96.281836, 38.464504]}}, {"type": "Feature", "properties": {"name": "人类活动监测点-0227", "type": "农村居民地", "zone": "实验区", "station_type": "human_activity"}, "geometry": {"type": "Point", "coordinates": [97.702099, 38.688709]}}, {"type": "Feature", "properties": {"name": "人类活动监测点-0228", "type": "工矿用地", "zone": "实验区", "station_type": "human_activity"}, "geometry": {"type": "Point", "coordinates": [99.843463, 39.371959]}}, {"type": "Feature", "properties": {"name": "人类活动监测点-0229", "type": "工矿用地", "zone": "实验区", "station_type": "human_activity"}, "geometry": {"type": "Point", "coordinates": [99.007494, 38.905736]}}, {"type": "Feature", "properties": {"name": "人类活动监测点-0230", "type": "水库坑塘", "zone": "外围保护区", "station_type": "human_activity"}, "geometry": {"type": "Point", "coordinates": [98.018088, 38.017467]}}, {"type": "Feature", "properties": {"name": "人类活动监测点-0231", "type": "工矿用地", "zone": "外围保护区", "station_type": "human_activity"}, "geometry": {"type": "Point", "coordinates": [96.550016, 37.643173]}}, {"type": "Feature", "properties": {"name": "人类活动监测点-0232", "type": "工矿用地", "zone": "实验区", "station_type": "human_activity"}, "geometry": {"type": "Point", "coordinates": [99.107154, 39.193595]}}, {"type": "Feature", "properties": {"name": "人类活动监测点-0233", "type": "农村居民地", "zone": "实验区", "station_type": "human_activity"}, "geometry": {"type": "Point", "coordinates": [99.176828, 39.560664]}}, {"type": "Feature", "properties": {"name": "人类活动监测点-0234", "type": "其他建设用地", "zone": "外围保护区", "station_type": "human_activity"}, "geometry": {"type": "Point", "coordinates": [100.845013, 37.294824]}}, {"type": "Feature", "properties": {"name": "人类活动监测点-0235", "type": "工矿用地", "zone": "实验区", "station_type": "human_activity"}, "geometry": {"type": "Point", "coordinates": [100.535972, 38.367494]}}, {"type": "Feature", "properties": {"name": "人类活动监测点-0236", "type": "工矿用地", "zone": "实验区", "station_type": "human_activity"}, "geometry": {"type": "Point", "coordinates": [102.341722, 38.648645]}}, {"type": "Feature", "properties": {"name": "人类活动监测点-0237", "type": "工矿用地", "zone": "实验区", "station_type": "human_activity"}, "geometry": {"type": "Point", "coordinates": [101.525542, 38.665461]}}, {"type": "Feature", "properties": {"name": "人类活动监测点-0238", "type": "工矿用地", "zone": "缓冲区", "station_type": "human_activity"}, "geometry": {"type": "Point", "coordinates": [99.205028, 39.770031]}}, {"type": "Feature", "properties": {"name": "人类活动监测点-0239", "type": "其他建设用地", "zone": "实验区", "station_type": "human_activity"}, "geometry": {"type": "Point", "coordinates": [100.298241, 39.450209]}}, {"type": "Feature", "properties": {"name": "人类活动监测点-0240", "type": "工矿用地", "zone": "实验区", "station_type": "human_activity"}, "geometry": {"type": "Point", "coordinates": [96.750331, 39.324845]}}, {"type": "Feature", "properties": {"name": "人类活动监测点-0241", "type": "工矿用地", "zone": "实验区", "station_type": "human_activity"}, "geometry": {"type": "Point", "coordinates": [102.789114, 39.082631]}}, {"type": "Feature", "properties": {"name": "人类活动监测点-0242", "type": "农村居民地", "zone": "实验区", "station_type": "human_activity"}, "geometry": {"type": "Point", "coordinates": [98.048188, 38.694959]}}, {"type": "Feature", "properties": {"name": "人类活动监测点-0243", "type": "农村居民地", "zone": "缓冲区", "station_type": "human_activity"}, "geometry": {"type": "Point", "coordinates": [99.364423, 39.270639]}}, {"type": "Feature", "properties": {"name": "人类活动监测点-0244", "type": "其他建设用地", "zone": "实验区", "station_type": "human_activity"}, "geometry": {"type": "Point", "coordinates": [98.271465, 39.692644]}}, {"type": "Feature", "properties": {"name": "人类活动监测点-0245", "type": "工矿用地", "zone": "实验区", "station_type": "human_activity"}, "geometry": {"type": "Point", "coordinates": [98.96528, 38.185924]}}, {"type": "Feature", "properties": {"name": "人类活动监测点-0246", "type": "工矿用地", "zone": "实验区", "station_type": "human_activity"}, "geometry": {"type": "Point", "coordinates": [102.090933, 38.866263]}}, {"type": "Feature", "properties": {"name": "人类活动监测点-0247", "type": "农村居民地", "zone": "实验区", "station_type": "human_activity"}, "geometry": {"type": "Point", "coordinates": [97.633523, 39.66232]}}, {"type": "Feature", "properties": {"name": "人类活动监测点-0248", "type": "工矿用地", "zone": "实验区", "station_type": "human_activity"}, "geometry": {"type": "Point", "coordinates": [101.594318, 38.885882]}}, {"type": "Feature", "properties": {"name": "人类活动监测点-0249", "type": "工矿用地", "zone": "外围保护区", "station_type": "human_activity"}, "geometry": {"type": "Point", "coordinates": [102.231842, 37.983325]}}, {"type": "Feature", "properties": {"name": "人类活动监测点-0250", "type": "工矿用地", "zone": "实验区", "station_type": "human_activity"}, "geometry": {"type": "Point", "coordinates": [99.07711, 38.604668]}}, {"type": "Feature", "properties": {"name": "人类活动监测点-0251", "type": "农村居民地", "zone": "实验区", "station_type": "human_activity"}, "geometry": {"type": "Point", "coordinates": [98.411969, 38.413017]}}, {"type": "Feature", "properties": {"name": "人类活动监测点-0252", "type": "农村居民地", "zone": "核心区", "station_type": "human_activity"}, "geometry": {"type": "Point", "coordinates": [100.93031, 37.383758]}}, {"type": "Feature", "properties": {"name": "人类活动监测点-0253", "type": "工矿用地", "zone": "实验区", "station_type": "human_activity"}, "geometry": {"type": "Point", "coordinates": [99.227459, 37.206201]}}, {"type": "Feature", "properties": {"name": "人类活动监测点-0254", "type": "农村居民地", "zone": "实验区", "station_type": "human_activity"}, "geometry": {"type": "Point", "coordinates": [100.004336, 39.259961]}}, {"type": "Feature", "properties": {"name": "人类活动监测点-0255", "type": "农村居民地", "zone": "实验区", "station_type": "human_activity"}, "geometry": {"type": "Point", "coordinates": [102.660124, 38.178525]}}, {"type": "Feature", "properties": {"name": "人类活动监测点-0256", "type": "工矿用地", "zone": "实验区", "station_type": "human_activity"}, "geometry": {"type": "Point", "coordinates": [103.166912, 39.31055]}}, {"type": "Feature", "properties": {"name": "人类活动监测点-0257", "type": "其他建设用地", "zone": "核心区", "station_type": "human_activity"}, "geometry": {"type": "Point", "coordinates": [100.005166, 39.714681]}}, {"type": "Feature", "properties": {"name": "人类活动监测点-0258", "type": "工矿用地", "zone": "外围保护区", "station_type": "human_activity"}, "geometry": {"type": "Point", "coordinates": [97.092101, 39.427721]}}, {"type": "Feature", "properties": {"name": "人类活动监测点-0259", "type": "水库坑塘", "zone": "实验区", "station_type": "human_activity"}, "geometry": {"type": "Point", "coordinates": [103.219272, 37.913382]}}, {"type": "Feature", "properties": {"name": "人类活动监测点-0260", "type": "工矿用地", "zone": "外围保护区", "station_type": "human_activity"}, "geometry": {"type": "Point", "coordinates": [96.471943, 37.401387]}}, {"type": "Feature", "properties": {"name": "人类活动监测点-0261", "type": "其他建设用地", "zone": "缓冲区", "station_type": "human_activity"}, "geometry": {"type": "Point", "coordinates": [98.052151, 37.178004]}}, {"type": "Feature", "properties": {"name": "人类活动监测点-0262", "type": "农村居民地", "zone": "实验区", "station_type": "human_activity"}, "geometry": {"type": "Point", "coordinates": [102.377144, 39.57746]}}, {"type": "Feature", "properties": {"name": "人类活动监测点-0263", "type": "工矿用地", "zone": "实验区", "station_type": "human_activity"}, "geometry": {"type": "Point", "coordinates": [96.965128, 37.053085]}}, {"type": "Feature", "properties": {"name": "人类活动监测点-0264", "type": "工矿用地", "zone": "实验区", "station_type": "human_activity"}, "geometry": {"type": "Point", "coordinates": [96.70824, 39.080345]}}, {"type": "Feature", "properties": {"name": "人类活动监测点-0265", "type": "工矿用地", "zone": "实验区", "station_type": "human_activity"}, "geometry": {"type": "Point", "coordinates": [97.993643, 38.520741]}}, {"type": "Feature", "properties": {"name": "人类活动监测点-0266", "type": "工矿用地", "zone": "外围保护区", "station_type": "human_activity"}, "geometry": {"type": "Point", "coordinates": [103.237696, 37.516191]}}, {"type": "Feature", "properties": {"name": "人类活动监测点-0267", "type": "工矿用地", "zone": "缓冲区", "station_type": "human_activity"}, "geometry": {"type": "Point", "coordinates": [97.479178, 39.034329]}}, {"type": "Feature", "properties": {"name": "人类活动监测点-0268", "type": "其他建设用地", "zone": "实验区", "station_type": "human_activity"}, "geometry": {"type": "Point", "coordinates": [97.542081, 39.486914]}}, {"type": "Feature", "properties": {"name": "人类活动监测点-0269", "type": "水库坑塘", "zone": "外围保护区", "station_type": "human_activity"}, "geometry": {"type": "Point", "coordinates": [96.180252, 37.484525]}}, {"type": "Feature", "properties": {"name": "人类活动监测点-0270", "type": "其他建设用地", "zone": "实验区", "station_type": "human_activity"}, "geometry": {"type": "Point", "coordinates": [98.951392, 37.066954]}}, {"type": "Feature", "properties": {"name": "人类活动监测点-0271", "type": "工矿用地", "zone": "实验区", "station_type": "human_activity"}, "geometry": {"type": "Point", "coordinates": [97.733677, 37.70342]}}, {"type": "Feature", "properties": {"name": "人类活动监测点-0272", "type": "水库坑塘", "zone": "实验区", "station_type": "human_activity"}, "geometry": {"type": "Point", "coordinates": [99.506252, 38.64999]}}, {"type": "Feature", "properties": {"name": "人类活动监测点-0273", "type": "工矿用地", "zone": "核心区", "station_type": "human_activity"}, "geometry": {"type": "Point", "coordinates": [96.783578, 38.180094]}}, {"type": "Feature", "properties": {"name": "人类活动监测点-0274", "type": "城镇用地", "zone": "实验区", "station_type": "human_activity"}, "geometry": {"type": "Point", "coordinates": [102.263484, 38.402064]}}, {"type": "Feature", "properties": {"name": "人类活动监测点-0275", "type": "工矿用地", "zone": "实验区", "station_type": "human_activity"}, "geometry": {"type": "Point", "coordinates": [98.263227, 38.920909]}}, {"type": "Feature", "properties": {"name": "人类活动监测点-0276", "type": "农村居民地", "zone": "实验区", "station_type": "human_activity"}, "geometry": {"type": "Point", "coordinates": [96.342242, 38.537492]}}, {"type": "Feature", "properties": {"name": "人类活动监测点-0277", "type": "其他建设用地", "zone": "实验区", "station_type": "human_activity"}, "geometry": {"type": "Point", "coordinates": [97.155053, 38.757983]}}, {"type": "Feature", "properties": {"name": "人类活动监测点-0278", "type": "农村居民地", "zone": "核心区", "station_type": "human_activity"}, "geometry": {"type": "Point", "coordinates": [97.953598, 38.445769]}}, {"type": "Feature", "properties": {"name": "人类活动监测点-0279", "type": "工矿用地", "zone": "实验区", "station_type": "human_activity"}, "geometry": {"type": "Point", "coordinates": [102.284203, 39.235485]}}, {"type": "Feature", "properties": {"name": "人类活动监测点-0280", "type": "其他建设用地", "zone": "实验区", "station_type": "human_activity"}, "geometry": {"type": "Point", "coordinates": [98.075241, 39.714791]}}, {"type": "Feature", "properties": {"name": "人类活动监测点-0281", "type": "其他建设用地", "zone": "缓冲区", "station_type": "human_activity"}, "geometry": {"type": "Point", "coordinates": [97.894114, 38.345333]}}, {"type": "Feature", "properties": {"name": "人类活动监测点-0282", "type": "工矿用地", "zone": "缓冲区", "station_type": "human_activity"}, "geometry": {"type": "Point", "coordinates": [96.211431, 39.208129]}}, {"type": "Feature", "properties": {"name": "人类活动监测点-0283", "type": "其他建设用地", "zone": "缓冲区", "station_type": "human_activity"}, "geometry": {"type": "Point", "coordinates": [97.644782, 38.324279]}}, {"type": "Feature", "properties": {"name": "人类活动监测点-0284", "type": "工矿用地", "zone": "缓冲区", "station_type": "human_activity"}, "geometry": {"type": "Point", "coordinates": [97.900693, 38.022979]}}, {"type": "Feature", "properties": {"name": "人类活动监测点-0285", "type": "工矿用地", "zone": "实验区", "station_type": "human_activity"}, "geometry": {"type": "Point", "coordinates": [98.512087, 38.999357]}}, {"type": "Feature", "properties": {"name": "人类活动监测点-0286", "type": "工矿用地", "zone": "实验区", "station_type": "human_activity"}, "geometry": {"type": "Point", "coordinates": [96.882772, 37.246872]}}, {"type": "Feature", "properties": {"name": "人类活动监测点-0287", "type": "工矿用地", "zone": "实验区", "station_type": "human_activity"}, "geometry": {"type": "Point", "coordinates": [99.621566, 37.706057]}}, {"type": "Feature", "properties": {"name": "人类活动监测点-0288", "type": "工矿用地", "zone": "缓冲区", "station_type": "human_activity"}, "geometry": {"type": "Point", "coordinates": [103.018785, 39.636587]}}, {"type": "Feature", "properties": {"name": "人类活动监测点-0289", "type": "工矿用地", "zone": "实验区", "station_type": "human_activity"}, "geometry": {"type": "Point", "coordinates": [101.701762, 38.702375]}}, {"type": "Feature", "properties": {"name": "人类活动监测点-0290", "type": "其他建设用地", "zone": "外围保护区", "station_type": "human_activity"}, "geometry": {"type": "Point", "coordinates": [102.869826, 39.784195]}}, {"type": "Feature", "properties": {"name": "人类活动监测点-0291", "type": "工矿用地", "zone": "实验区", "station_type": "human_activity"}, "geometry": {"type": "Point", "coordinates": [99.261752, 37.755946]}}, {"type": "Feature", "properties": {"name": "人类活动监测点-0292", "type": "农村居民地", "zone": "实验区", "station_type": "human_activity"}, "geometry": {"type": "Point", "coordinates": [102.778961, 38.432036]}}, {"type": "Feature", "properties": {"name": "人类活动监测点-0293", "type": "水库坑塘", "zone": "实验区", "station_type": "human_activity"}, "geometry": {"type": "Point", "coordinates": [99.289055, 38.993324]}}, {"type": "Feature", "properties": {"name": "人类活动监测点-0294", "type": "工矿用地", "zone": "缓冲区", "station_type": "human_activity"}, "geometry": {"type": "Point", "coordinates": [101.962419, 38.808655]}}, {"type": "Feature", "properties": {"name": "人类活动监测点-0295", "type": "工矿用地", "zone": "实验区", "station_type": "human_activity"}, "geometry": {"type": "Point", "coordinates": [99.309489, 38.451454]}}, {"type": "Feature", "properties": {"name": "人类活动监测点-0296", "type": "其他建设用地", "zone": "实验区", "station_type": "human_activity"}, "geometry": {"type": "Point", "coordinates": [97.68627, 38.172139]}}, {"type": "Feature", "properties": {"name": "人类活动监测点-0297", "type": "工矿用地", "zone": "实验区", "station_type": "human_activity"}, "geometry": {"type": "Point", "coordinates": [99.092845, 37.237278]}}, {"type": "Feature", "properties": {"name": "人类活动监测点-0298", "type": "工矿用地", "zone": "实验区", "station_type": "human_activity"}, "geometry": {"type": "Point", "coordinates": [96.703315, 39.43079]}}, {"type": "Feature", "properties": {"name": "人类活动监测点-0299", "type": "工矿用地", "zone": "实验区", "station_type": "human_activity"}, "geometry": {"type": "Point", "coordinates": [99.640902, 37.290872]}}, {"type": "Feature", "properties": {"name": "人类活动监测点-0300", "type": "水库坑塘", "zone": "实验区", "station_type": "human_activity"}, "geometry": {"type": "Point", "coordinates": [99.643885, 37.425427]}}]}