{"type": "FeatureCollection", "features": [{"type": "Feature", "properties": {"id": "DYK001", "name": "大野口站-1", "elevation": 3200, "type": "天然林", "station_type": "forest_hydrology"}, "geometry": {"type": "Point", "coordinates": [100.2909, 38.53006]}}, {"type": "Feature", "properties": {"id": "DYK002", "name": "大野口站-2", "elevation": 3050, "type": "天然林", "station_type": "forest_hydrology"}, "geometry": {"type": "Point", "coordinates": [100.275, 38.545]}}, {"type": "Feature", "properties": {"id": "DYK003", "name": "大野口站-3", "elevation": 3350, "type": "天然林", "station_type": "forest_hydrology"}, "geometry": {"type": "Point", "coordinates": [100.31, 38.52]}}, {"type": "Feature", "properties": {"id": "DYK004", "name": "大野口站-4", "elevation": 2900, "type": "天然林", "station_type": "forest_hydrology"}, "geometry": {"type": "Point", "coordinates": [100.26, 38.56]}}, {"type": "Feature", "properties": {"id": "DYK005", "name": "大野口站-5", "elevation": 3500, "type": "天然林", "station_type": "forest_hydrology"}, "geometry": {"type": "Point", "coordinates": [100.33, 38.51]}}, {"type": "Feature", "properties": {"id": "DYK006", "name": "大野口站-6", "elevation": 2750, "type": "天然林", "station_type": "forest_hydrology"}, "geometry": {"type": "Point", "coordinates": [100.245, 38.57]}}, {"type": "Feature", "properties": {"id": "DYK007", "name": "大野口站-7", "elevation": 3650, "type": "天然林", "station_type": "forest_hydrology"}, "geometry": {"type": "Point", "coordinates": [100.345, 38.5]}}, {"type": "Feature", "properties": {"id": "DYK008", "name": "大野口站-8", "elevation": 3100, "type": "人工林", "station_type": "forest_hydrology"}, "geometry": {"type": "Point", "coordinates": [100.28, 38.535]}}]}