{"type": "FeatureCollection", "name": "ne_10m_lakes", "crs": {"type": "name", "properties": {"name": "urn:ogc:def:crs:OGC:1.3:CRS84"}}, "features": [{"type": "Feature", "properties": {"featurecla": "Lake", "scalerank": 9, "name": null, "name_abb": null, "name_alt": null, "note": "_untitled_262", "delta": null, "dam_name": null, "year": -99, "admin": null, "min_zoom": 7, "min_label": 8, "label": null, "wikidataid": null, "name_ar": null, "name_bn": null, "name_de": null, "name_en": null, "name_es": null, "name_fr": null, "name_el": null, "name_hi": null, "name_hu": null, "name_id": null, "name_it": null, "name_ja": null, "name_ko": null, "name_nl": null, "name_pl": null, "name_pt": null, "name_ru": null, "name_sv": null, "name_tr": null, "name_vi": null, "name_zh": null, "ne_id": 1159119911, "name_fa": null, "name_he": null, "name_uk": null, "name_ur": null, "name_zht": null}, "bbox": [94.972027, 36.876874, 95.299949, 37.054964], "geometry": {"type": "Polygon", "coordinates": [[[95.231067, 37.007866], [95.295239, 36.962828], [95.299949, 36.937808], [95.293767, 36.907488], [95.279637, 36.88335], [95.259326, 36.876874], [95.236955, 36.893947], [95.201042, 36.947816], [95.173666, 36.959296], [95.148351, 36.96695], [95.116854, 37.000213], [95.091244, 37.007866], [95.028545, 37.010221], [95.000286, 37.016403], [94.972027, 37.027589], [94.983213, 37.03377], [94.994399, 37.034948], [95.006468, 37.034359], [95.019714, 37.035242], [95.030017, 37.039363], [95.052388, 37.052315], [95.064163, 37.054964], [95.087123, 37.052021], [95.130395, 37.038186], [95.193683, 37.027294], [95.231067, 37.007866]]]}}, {"type": "Feature", "properties": {"featurecla": "Alkaline Lake", "scalerank": 3, "name": "Qinghai Hu", "name_abb": "Qinghai Hu", "name_alt": "Koko Nor", "note": null, "delta": null, "dam_name": null, "year": -99, "admin": null, "min_zoom": 3, "min_label": 4, "label": "Qinghai Hu", "wikidataid": "Q201294", "name_ar": "بحيرة تشينغهاي", "name_bn": "কোইংহাই হু", "name_de": "Qinghai", "name_en": "Qinghai", "name_es": "Qinghai", "name_fr": "Qinghai", "name_el": "Λίμνη Τσινγκχάι", "name_hi": "चिंगहई झील", "name_hu": "Csinghaj-tó", "name_id": "Qinghai", "name_it": "Qinghai", "name_ja": "青海湖", "name_ko": "칭하이호", "name_nl": "Qinghaimeer", "name_pl": "Kuku-nor", "name_pt": "Chingai", "name_ru": "Кукунор", "name_sv": "Qinghaisjön", "name_tr": "Koko Nor", "name_vi": "Thanh Hải", "name_zh": "青海湖", "ne_id": 1159126725, "name_fa": "دریاچه چینگهای", "name_he": "ימת צ'ינגהאי", "name_uk": "Кукунор", "name_ur": "جھیل چنگھائی", "name_zht": "青海湖"}, "bbox": [99.617682, 36.541005, 100.765996, 37.227756], "geometry": {"type": "Polygon", "coordinates": [[[100.717426, 36.853325], [100.751867, 36.82536], [100.765996, 36.804461], [100.761581, 36.781206], [100.743036, 36.773258], [100.72037, 36.776496], [100.70153, 36.776202], [100.693288, 36.757362], [100.698881, 36.74441], [100.734499, 36.706143], [100.741858, 36.684066], [100.73862, 36.669642], [100.731555, 36.655807], [100.72037, 36.590164], [100.712716, 36.566026], [100.703591, 36.555429], [100.694466, 36.553074], [100.6718, 36.543654], [100.659142, 36.541005], [100.649428, 36.541593], [100.628234, 36.54542], [100.559941, 36.566614], [100.539924, 36.568969], [100.498419, 36.578389], [100.459269, 36.599583], [100.445434, 36.622838], [100.481052, 36.63785], [100.481052, 36.644032], [100.450143, 36.64521], [100.440135, 36.644032], [100.435425, 36.641677], [100.423651, 36.632552], [100.418941, 36.630491], [100.410404, 36.631669], [100.403045, 36.636673], [100.395392, 36.63785], [100.392742, 36.644327], [100.390387, 36.65669], [100.385383, 36.665815], [100.366838, 36.658162], [100.330337, 36.650803], [100.300018, 36.657573], [100.288832, 36.657867], [100.276763, 36.654629], [100.259101, 36.646093], [100.220834, 36.641677], [100.159017, 36.62431], [100.133996, 36.623721], [100.089253, 36.634907], [100.022138, 36.643738], [99.980927, 36.657867], [99.943248, 36.676412], [99.92647, 36.68907], [99.907925, 36.719978], [99.882315, 36.722039], [99.836689, 36.712325], [99.810785, 36.713208], [99.797832, 36.72351], [99.781642, 36.760895], [99.791356, 36.774435], [99.790473, 36.79298], [99.780171, 36.811231], [99.761626, 36.822122], [99.723358, 36.83272], [99.70187, 36.84155], [99.682736, 36.865983], [99.63711, 36.889237], [99.623863, 36.898068], [99.619153, 36.908371], [99.617682, 36.91838], [99.619153, 36.928388], [99.623863, 36.938985], [99.662131, 36.96695], [99.682442, 36.965772], [99.697454, 36.961945], [99.733661, 36.945755], [99.781642, 36.937513], [99.820793, 36.951348], [99.842281, 36.981373], [99.836689, 37.021407], [99.832567, 37.037891], [99.830507, 37.042012], [99.827269, 37.044367], [99.81991, 37.046722], [99.816966, 37.048783], [99.780759, 37.082046], [99.770162, 37.105595], [99.760448, 37.122079], [99.754561, 37.142096], [99.761626, 37.164762], [99.776933, 37.178009], [99.796949, 37.185073], [99.836689, 37.192727], [99.893206, 37.211566], [99.935006, 37.215687], [99.967681, 37.225401], [99.984165, 37.227756], [99.999766, 37.223929], [100.043038, 37.199497], [100.079245, 37.191255], [100.182861, 37.192727], [100.192575, 37.190078], [100.215535, 37.180364], [100.223777, 37.181835], [100.230548, 37.187723], [100.239379, 37.193316], [100.249387, 37.198025], [100.258218, 37.199497], [100.274702, 37.196259], [100.286183, 37.188606], [100.29678, 37.17948], [100.296191, 37.178597], [100.34741, 37.117664], [100.441607, 37.046134], [100.469571, 37.017286], [100.559941, 36.887471], [100.577897, 36.870104], [100.593499, 36.863628], [100.638831, 36.863333], [100.649722, 36.860684], [100.672094, 36.851559], [100.679747, 36.849498], [100.688578, 36.853619], [100.695937, 36.86039], [100.704474, 36.862745], [100.717426, 36.853325]]]}}], "bbox": [-165.965581688293, -50.6696665174836, 177.15437916069, 81.9552078693087]}