{"type": "FeatureCollection", "features": [{"type": "Feature", "properties": {"name": "黑河", "type": "river"}, "geometry": {"type": "LineString", "coordinates": [[99.8, 38.8], [100.0, 38.5], [100.2, 38.2], [100.5, 38.0], [101.0, 38.5]]}}, {"type": "Feature", "properties": {"name": "疏勒河", "type": "river"}, "geometry": {"type": "LineString", "coordinates": [[96.5, 39.5], [97.0, 39.2], [97.5, 39.0], [98.0, 38.8]]}}, {"type": "Feature", "properties": {"name": "大通河", "type": "river"}, "geometry": {"type": "LineString", "coordinates": [[100.5, 37.5], [101.0, 37.3], [101.5, 37.0], [102.0, 37.2]]}}, {"type": "Feature", "properties": {"name": "石羊河", "type": "river"}, "geometry": {"type": "LineString", "coordinates": [[101.5, 38.2], [102.0, 38.0], [102.5, 37.8], [103.0, 38.0]]}}]}