{"type": "FeatureCollection", "features": [{"type": "Feature", "properties": {"name": "黑河流域", "name_en": "Hei River Basin", "type": "watershed"}, "geometry": {"type": "Polygon", "coordinates": [[[99.5, 38.5], [100.5, 38.8], [101.0, 38.5], [100.8, 38.0], [99.8, 38.0], [99.5, 38.5]]]}}, {"type": "Feature", "properties": {"name": "疏勒河流域", "name_en": "Shule River Basin", "type": "watershed"}, "geometry": {"type": "Polygon", "coordinates": [[[96.5, 39.5], [98.0, 39.8], [98.5, 39.3], [97.8, 39.0], [96.8, 39.2], [96.5, 39.5]]]}}, {"type": "Feature", "properties": {"name": "大通河流域", "name_en": "Datong River Basin", "type": "watershed"}, "geometry": {"type": "Polygon", "coordinates": [[[100.5, 37.5], [101.5, 37.8], [102.0, 37.5], [101.5, 37.0], [100.8, 37.2], [100.5, 37.5]]]}}, {"type": "Feature", "properties": {"name": "石羊河流域", "name_en": "Shiyang River Basin", "type": "watershed"}, "geometry": {"type": "Polygon", "coordinates": [[[101.5, 38.2], [102.5, 38.5], [103.0, 38.2], [102.5, 37.7], [101.8, 37.8], [101.5, 38.2]]]}}, {"type": "Feature", "properties": {"name": "党河流域", "name_en": "Dang River Basin", "type": "watershed"}, "geometry": {"type": "Polygon", "coordinates": [[[94.5, 39.5], [96.0, 39.8], [96.3, 39.3], [95.5, 39.0], [94.8, 39.2], [94.5, 39.5]]]}}, {"type": "Feature", "properties": {"name": "哈尔滨河流域", "name_en": "Haertar River Basin", "type": "watershed"}, "geometry": {"type": "Polygon", "coordinates": [[[97.5, 38.5], [98.5, 38.8], [99.0, 38.5], [98.5, 38.0], [97.8, 38.0], [97.5, 38.5]]]}}]}