{"type": "FeatureCollection", "features": [{"type": "Feature", "properties": {"id": "CAM000", "name": "监测站点 000", "species": "白唇鹿", "temperature": 4.0, "station_type": "wildlife_camera"}, "geometry": {"type": "Point", "coordinates": [102.143285, 37.948217]}}, {"type": "Feature", "properties": {"id": "CAM001", "name": "监测站点 001", "species": "藏野驴", "temperature": 13.0, "station_type": "wildlife_camera"}, "geometry": {"type": "Point", "coordinates": [99.577565, 37.495049]}}, {"type": "Feature", "properties": {"id": "CAM002", "name": "监测站点 002", "species": "棕熊", "temperature": 18.9, "station_type": "wildlife_camera"}, "geometry": {"type": "Point", "coordinates": [99.840821, 37.448554]}}, {"type": "Feature", "properties": {"id": "CAM003", "name": "监测站点 003", "species": "白唇鹿", "temperature": 9.3, "station_type": "wildlife_camera"}, "geometry": {"type": "Point", "coordinates": [100.627865, 38.622158]}}, {"type": "Feature", "properties": {"id": "CAM004", "name": "监测站点 004", "species": "白唇鹿", "temperature": 2.6, "station_type": "wildlife_camera"}, "geometry": {"type": "Point", "coordinates": [98.840222, 37.844834]}}, {"type": "Feature", "properties": {"id": "CAM005", "name": "监测站点 005", "species": "白唇鹿", "temperature": 10.7, "station_type": "wildlife_camera"}, "geometry": {"type": "Point", "coordinates": [99.056587, 37.560155]}}, {"type": "Feature", "properties": {"id": "CAM006", "name": "监测站点 006", "species": "雪豹", "temperature": 15.8, "station_type": "wildlife_camera"}, "geometry": {"type": "Point", "coordinates": [101.475473, 37.855781]}}, {"type": "Feature", "properties": {"id": "CAM007", "name": "监测站点 007", "species": "棕熊", "temperature": 11.5, "station_type": "wildlife_camera"}, "geometry": {"type": "Point", "coordinates": [100.40957, 37.519205]}}, {"type": "Feature", "properties": {"id": "CAM008", "name": "监测站点 008", "species": "雪豹", "temperature": 7.8, "station_type": "wildlife_camera"}, "geometry": {"type": "Point", "coordinates": [100.156282, 39.182388]}}, {"type": "Feature", "properties": {"id": "CAM009", "name": "监测站点 009", "species": "棕熊", "temperature": -4.9, "station_type": "wildlife_camera"}, "geometry": {"type": "Point", "coordinates": [100.339011, 37.981217]}}, {"type": "Feature", "properties": {"id": "CAM010", "name": "监测站点 010", "species": "雪豹", "temperature": 2.8, "station_type": "wildlife_camera"}, "geometry": {"type": "Point", "coordinates": [98.809211, 39.131858]}}, {"type": "Feature", "properties": {"id": "CAM011", "name": "监测站点 011", "species": "白唇鹿", "temperature": 19.6, "station_type": "wildlife_camera"}, "geometry": {"type": "Point", "coordinates": [99.966198, 37.622126]}}, {"type": "Feature", "properties": {"id": "CAM012", "name": "监测站点 012", "species": "岩羊", "temperature": 15.9, "station_type": "wildlife_camera"}, "geometry": {"type": "Point", "coordinates": [101.290277, 37.062714]}}, {"type": "Feature", "properties": {"id": "CAM013", "name": "监测站点 013", "species": "赤狐", "temperature": 23.2, "station_type": "wildlife_camera"}, "geometry": {"type": "Point", "coordinates": [98.754482, 38.611725]}}, {"type": "Feature", "properties": {"id": "CAM014", "name": "监测站点 014", "species": "白唇鹿", "temperature": -1.8, "station_type": "wildlife_camera"}, "geometry": {"type": "Point", "coordinates": [100.895561, 38.225752]}}, {"type": "Feature", "properties": {"id": "CAM015", "name": "监测站点 015", "species": "岩羊", "temperature": 20.5, "station_type": "wildlife_camera"}, "geometry": {"type": "Point", "coordinates": [101.133385, 38.28785]}}, {"type": "Feature", "properties": {"id": "CAM016", "name": "监测站点 016", "species": "棕熊", "temperature": 1.8, "station_type": "wildlife_camera"}, "geometry": {"type": "Point", "coordinates": [100.382793, 37.772513]}}, {"type": "Feature", "properties": {"id": "CAM017", "name": "监测站点 017", "species": "雪豹", "temperature": 24.8, "station_type": "wildlife_camera"}, "geometry": {"type": "Point", "coordinates": [100.547121, 37.294636]}}, {"type": "Feature", "properties": {"id": "CAM018", "name": "监测站点 018", "species": "岩羊", "temperature": 10.5, "station_type": "wildlife_camera"}, "geometry": {"type": "Point", "coordinates": [98.854544, 38.559015]}}, {"type": "Feature", "properties": {"id": "CAM019", "name": "监测站点 019", "species": "赤狐", "temperature": 11.5, "station_type": "wildlife_camera"}, "geometry": {"type": "Point", "coordinates": [101.512421, 39.22105]}}]}